IRIDIUM 136             
1 42962U 17061H   24086.52006540  .00000820  00000+0  28583-3 0  9998
2 42962  86.4035   4.8638 0002452  93.2162 266.9314 14.34211043338352
